{
  "type": "FeatureCollection",
  "features": [
    {
      "type": "Feature",
      "properties": {
        "norad_id": 51444,
        "name": "CSG-2",
        "group": "resource",
        "lat": 26.72056947490185,
        "lon": -5.235222839433841,
        "alt_km": 621.2143091304979,
        "timestamp": "2025-12-15T11:38:36.815465+00:00",
        "meta_object_name": "CSG-2",
        "meta_object_id": "2022-008A",
        "meta_epoch": "2025-12-14T21:59:39.018912",
        "meta_mean_motion": 14.82165966,
        "meta_eccentricity": 0.0001469,
        "meta_inclination": 97.8808,
        "meta_ra_of_asc_node": 170.2065,
        "meta_arg_of_pericenter": 82.0603,
        "meta_mean_anomaly": 278.0777,
        "meta_ephemeris_type": 0,
        "meta_classification_type": "U",
        "meta_norad_cat_id": 51444,
        "meta_element_set_no": 999,
        "meta_rev_at_epoch": 20929,
        "meta_bstar": 5.0769599e-05,
        "meta_mean_motion_dot": 3.52e-06,
        "meta_mean_motion_ddot": 0,
        "tle_line1": "1 51444U 22008A   25348.91642383  .00000352  00000+0  50770-4 0  9990",
        "tle_line2": "2 51444  97.8808 170.2065 0001469  82.0603 278.0777 14.82165966209298"
      },
      "geometry": {
        "type": "Point",
        "coordinates": [
          -5.235222839433841,
          26.72056947490185
        ]
      }
    },
    {
      "type": "Feature",
      "properties": {
        "norad_id": 52912,
        "name": "GAOFEN-12 03",
        "group": "resource",
        "lat": 43.64022163051147,
        "lon": -130.78782932795934,
        "alt_km": 625.3970978730604,
        "timestamp": "2025-12-15T11:38:36.815474+00:00",
        "meta_object_name": "GAOFEN-12 03",
        "meta_object_id": "2022-069A",
        "meta_epoch": "2025-12-14T22:27:37.827936",
        "meta_mean_motion": 14.79619267,
        "meta_eccentricity": 0.00021793,
        "meta_inclination": 97.8483,
        "meta_ra_of_asc_node": 236.2342,
        "meta_arg_of_pericenter": 59.26,
        "meta_mean_anomaly": 300.8826,
        "meta_ephemeris_type": 0,
        "meta_classification_type": "U",
        "meta_norad_cat_id": 52912,
        "meta_element_set_no": 999,
        "meta_rev_at_epoch": 18736,
        "meta_bstar": 0.00029436241,
        "meta_mean_motion_dot": 2.156e-05,
        "meta_mean_motion_ddot": 0,
        "tle_line1": "1 52912U 22069A   25348.93585449  .00002156  00000+0  29436-3 0  9997",
        "tle_line2": "2 52912  97.8483 236.2342 0002179  59.2600 300.8826 14.79619267187367"
      },
      "geometry": {
        "type": "Point",
        "coordinates": [
          -130.78782932795934,
          43.64022163051147
        ]
      }
    },
    {
      "type": "Feature",
      "properties": {
        "norad_id": 54754,
        "name": "SWOT",
        "group": "resource",
        "lat": -41.97595032195884,
        "lon": -88.12133090078949,
        "alt_km": 899.8305546208476,
        "timestamp": "2025-12-15T11:38:36.815484+00:00",
        "meta_object_name": "SWOT",
        "meta_object_id": "2022-173A",
        "meta_epoch": "2025-12-14T22:07:49.154016",
        "meta_mean_motion": 14.00167221,
        "meta_eccentricity": 3.516e-05,
        "meta_inclination": 77.6107,
        "meta_ra_of_asc_node": 284.0437,
        "meta_arg_of_pericenter": 105.6612,
        "meta_mean_anomaly": 254.4579,
        "meta_ephemeris_type": 0,
        "meta_classification_type": "U",
        "meta_norad_cat_id": 54754,
        "meta_element_set_no": 999,
        "meta_rev_at_epoch": 15336,
        "meta_bstar": 6.9233889e-05,
        "meta_mean_motion_dot": 1e-06,
        "meta_mean_motion_ddot": 0,
        "tle_line1": "1 54754U 22173A   25348.92209669  .00000100  00000+0  69234-4 0  9993",
        "tle_line2": "2 54754  77.6107 284.0437 0000351 105.6612 254.4579 14.00167221153361"
      },
      "geometry": {
        "type": "Point",
        "coordinates": [
          -88.12133090078949,
          -41.97595032195884
        ]
      }
    },
    {
      "type": "Feature",
      "properties": {
        "norad_id": 57654,
        "name": "GAOFEN-12 04",
        "group": "resource",
        "lat": -34.476658491119174,
        "lon": 79.72049567465598,
        "alt_km": 637.2089242432958,
        "timestamp": "2025-12-15T11:38:36.815494+00:00",
        "meta_object_name": "GAOFEN-12 04",
        "meta_object_id": "2023-123A",
        "meta_epoch": "2025-12-14T23:18:56.054304",
        "meta_mean_motion": 14.7970627,
        "meta_eccentricity": 0.00012793,
        "meta_inclination": 97.9122,
        "meta_ra_of_asc_node": 264.6947,
        "meta_arg_of_pericenter": 73.9961,
        "meta_mean_anomaly": 286.1392,
        "meta_ephemeris_type": 0,
        "meta_classification_type": "U",
        "meta_norad_cat_id": 57654,
        "meta_element_set_no": 999,
        "meta_rev_at_epoch": 12538,
        "meta_bstar": 0.0002009703,
        "meta_mean_motion_dot": 1.458e-05,
        "meta_mean_motion_ddot": 0,
        "tle_line1": "1 57654U 23123A   25348.97148211  .00001458  00000+0  20097-3 0  9991",
        "tle_line2": "2 57654  97.9122 264.6947 0001279  73.9961 286.1392 14.79706270125384"
      },
      "geometry": {
        "type": "Point",
        "coordinates": [
          79.72049567465598,
          -34.476658491119174
        ]
      }
    },
    {
      "type": "Feature",
      "properties": {
        "norad_id": 59065,
        "name": "PARS 1",
        "group": "resource",
        "lat": 43.03555676365312,
        "lon": 147.507120819302,
        "alt_km": 437.0006299763936,
        "timestamp": "2025-12-15T11:38:36.815503+00:00",
        "meta_object_name": "PARS 1",
        "meta_object_id": "2024-039Q",
        "meta_epoch": "2025-12-14T22:35:14.770752",
        "meta_mean_motion": 15.41030003,
        "meta_eccentricity": 0.00124648,
        "meta_inclination": 97.4632,
        "meta_ra_of_asc_node": 319.921,
        "meta_arg_of_pericenter": 65.761,
        "meta_mean_anomaly": 294.4938,
        "meta_ephemeris_type": 0,
        "meta_classification_type": "U",
        "meta_norad_cat_id": 59065,
        "meta_element_set_no": 999,
        "meta_rev_at_epoch": 10022,
        "meta_bstar": 0.00021893237,
        "meta_mean_motion_dot": 8.973e-05,
        "meta_mean_motion_ddot": 0,
        "tle_line1": "1 59065U 24039Q   25348.94114318  .00008973  00000+0  21893-3 0  9998",
        "tle_line2": "2 59065  97.4632 319.9210 0012464  65.7610 294.4938 15.41030003100226"
      },
      "geometry": {
        "type": "Point",
        "coordinates": [
          147.507120819302,
          43.03555676365312
        ]
      }
    },
    {
      "type": "Feature",
      "properties": {
        "norad_id": 59371,
        "name": "RESURS-P 4",
        "group": "resource",
        "lat": -10.406873540363783,
        "lon": 114.41829708005478,
        "alt_km": 474.5713892912645,
        "timestamp": "2025-12-15T11:38:36.815538+00:00",
        "meta_object_name": "RESURS-P 4",
        "meta_object_id": "2024-061A",
        "meta_epoch": "2025-12-14T22:16:31.528416",
        "meta_mean_motion": 15.32104571,
        "meta_eccentricity": 0.00013545,
        "meta_inclination": 97.2541,
        "meta_ra_of_asc_node": 295.2132,
        "meta_arg_of_pericenter": 54.2198,
        "meta_mean_anomaly": 305.917,
        "meta_ephemeris_type": 0,
        "meta_classification_type": "U",
        "meta_norad_cat_id": 59371,
        "meta_element_set_no": 999,
        "meta_rev_at_epoch": 9554,
        "meta_bstar": 0.00011604821,
        "meta_mean_motion_dot": 3.521e-05,
        "meta_mean_motion_ddot": 0,
        "tle_line1": "1 59371U 24061A   25348.92814269  .00003521  00000+0  11605-3 0  9997",
        "tle_line2": "2 59371  97.2541 295.2132 0001354  54.2198 305.9170 15.32104571 95548"
      },
      "geometry": {
        "type": "Point",
        "coordinates": [
          114.41829708005478,
          -10.406873540363783
        ]
      }
    },
    {
      "type": "Feature",
      "properties": {
        "norad_id": 59625,
        "name": "LEGION 1",
        "group": "resource",
        "lat": -78.64342304003348,
        "lon": -157.0349925123204,
        "alt_km": 521.8571557493178,
        "timestamp": "2025-12-15T11:38:36.815549+00:00",
        "meta_object_name": "LEGION 1",
        "meta_object_id": "2024-081A",
        "meta_epoch": "2025-12-14T21:49:29.994816",
        "meta_mean_motion": 15.16504004,
        "meta_eccentricity": 0.00038771,
        "meta_inclination": 97.5214,
        "meta_ra_of_asc_node": 63.5292,
        "meta_arg_of_pericenter": 308.1782,
        "meta_mean_anomaly": 51.9101,
        "meta_ephemeris_type": 0,
        "meta_classification_type": "U",
        "meta_norad_cat_id": 59625,
        "meta_element_set_no": 999,
        "meta_rev_at_epoch": 8960,
        "meta_bstar": 0.00020853711,
        "meta_mean_motion_dot": 3.996e-05,
        "meta_mean_motion_ddot": 0,
        "tle_line1": "1 59625U 24081A   25348.90937494  .00003996  00000+0  20854-3 0  9997",
        "tle_line2": "2 59625  97.5214  63.5292 0003877 308.1782  51.9101 15.16504004 89604"
      },
      "geometry": {
        "type": "Point",
        "coordinates": [
          -157.0349925123204,
          -78.64342304003348
        ]
      }
    }
  ]
}